{"type": "FeatureCollection", "features": [ {"type": "Feature", "properties": {"norad_id": 42741, "name": "EUTELSAT 172B", "group": "eutelsat", "lat": -0.01621060444603421, "lon": 50.34673215704438, "alt_km": 35786.893147585804, "timestamp": "2025-12-27T09:28:56.138682+00:00", "meta": {"OBJECT_NAME": "EUTELSAT 172B", "OBJECT_ID": "2017-029B", "EPOCH": "2025-12-27T02:56:38.611104", "MEAN_MOTION": 1.00270227, "ECCENTRICITY": 1.14e-05, "INCLINATION": 0.0382, "RA_OF_ASC_NODE": 161.2044, "ARG_OF_PERICENTER": 31.915, "MEAN_ANOMALY": 118.8954, "EPHEMERIS_TYPE": 0, "CLASSIFICATION_TYPE": "U", "NORAD_CAT_ID": 42741, "ELEMENT_SET_NO": 999, "REV_AT_EPOCH": 3200, "BSTAR": 0, "MEAN_MOTION_DOT": 1.6e-07, "MEAN_MOTION_DDOT": 0}, "tle": {"line1": "1 42741U 17029B   25361.12266911  .00000016  00000+0  00000+0 0  9997", "line2": "2 42741   0.0382 161.2044 0000114  31.9150 118.8954  1.00270227 32008"}}, "geometry": {"type": "Point", "coordinates": [50.34673215704438, -0.01621060444603421]}}, {"type": "Feature", "properties": {"norad_id": 44334, "name": "EUTELSAT 7C", "group": "eutelsat", "lat": 0.05009964236671583, "lon": -114.68350436225295, "alt_km": 35772.642106691965, "timestamp": "2025-12-27T09:28:56.138699+00:00", "meta": {"OBJECT_NAME": "EUTELSAT 7C", "OBJECT_ID": "2019-034B", "EPOCH": "2025-12-27T02:45:44.542368", "MEAN_MOTION": 1.0027256, "ECCENTRICITY": 0.00033, "INCLINATION": 0.0729, "RA_OF_ASC_NODE": 180.7939, "ARG_OF_PERICENTER": 83.5371, "MEAN_ANOMALY": 239.9301, "EPHEMERIS_TYPE": 0, "CLASSIFICATION_TYPE": "U", "NORAD_CAT_ID": 44334, "ELEMENT_SET_NO": 999, "REV_AT_EPOCH": 511, "BSTAR": 0, "MEAN_MOTION_DOT": 7.1e-07, "MEAN_MOTION_DDOT": 0}, "tle": {"line1": "1 44334U 19034B   25361.11509887  .00000071  00000+0  00000+0 0  9997", "line2": "2 44334   0.0729 180.7939 0003300  83.5371 239.9301  1.00272560  5115"}}, "geometry": {"type": "Point", "coordinates": [-114.68350436225295, 0.05009964236671583]}}, {"type": "Feature", "properties": {"norad_id": 44624, "name": "EUTELSAT 5 WEST B", "group": "eutelsat", "lat": -0.0697919810193042, "lon": -126.67303790639102, "alt_km": 35775.83782705413, "timestamp": "2025-12-27T09:28:56.138711+00:00", "meta": {"OBJECT_NAME": "EUTELSAT 5 WEST B", "OBJECT_ID": "2019-067A", "EPOCH": "2025-12-27T02:42:22.362912", "MEAN_MOTION": 1.00271218, "ECCENTRICITY": 0.0003267, "INCLINATION": 0.0618, "RA_OF_ASC_NODE": 348.3802, "ARG_OF_PERICENTER": 286.1386, "MEAN_ANOMALY": 216.922, "EPHEMERIS_TYPE": 0, "CLASSIFICATION_TYPE": "U", "NORAD_CAT_ID": 44624, "ELEMENT_SET_NO": 999, "REV_AT_EPOCH": 2271, "BSTAR": 0, "MEAN_MOTION_DOT": -2e-07, "MEAN_MOTION_DDOT": 0}, "tle": {"line1": "1 44624U 19067A   25361.11275883 -.00000020  00000+0  00000+0 0  9996", "line2": "2 44624   0.0618 348.3802 0003267 286.1386 216.9220  1.00271218 22713"}}, "geometry": {"type": "Point", "coordinates": [-126.67303790639102, -0.0697919810193042]}}, {"type": "Feature", "properties": {"norad_id": 45027, "name": "EUTELSAT KONNECT", "group": "eutelsat", "lat": 0.015289332409379124, "lon": -114.45689696913578, "alt_km": 35781.943576963036, "timestamp": "2025-12-27T09:28:56.138722+00:00", "meta": {"OBJECT_NAME": "EUTELSAT KONNECT", "OBJECT_ID": "2020-005B", "EPOCH": "2025-12-27T02:45:52.028928", "MEAN_MOTION": 1.00270379, "ECCENTRICITY": 0.0001516, "INCLINATION": 0.0656, "RA_OF_ASC_NODE": 94.0396, "ARG_OF_PERICENTER": 196.9123, "MEAN_ANOMALY": 213.5692, "EPHEMERIS_TYPE": 0, "CLASSIFICATION_TYPE": "U", "NORAD_CAT_ID": 45027, "ELEMENT_SET_NO": 999, "REV_AT_EPOCH": 2261, "BSTAR": 0, "MEAN_MOTION_DOT": 7.2e-07, "MEAN_MOTION_DDOT": 0}, "tle": {"line1": "1 45027U 20005B   25361.11518552  .00000072  00000+0  00000+0 0  9997", "line2": "2 45027   0.0656  94.0396 0001516 196.9123 213.5692  1.00270379 22610"}}, "geometry": {"type": "Point", "coordinates": [-114.45689696913578, 0.015289332409379124]}}, {"type": "Feature", "properties": {"norad_id": 49056, "name": "EUTELSAT QUANTUM", "group": "eutelsat", "lat": -0.03232485568749991, "lon": -73.94627046479792, "alt_km": 35770.656682827925, "timestamp": "2025-12-27T09:28:56.138734+00:00", "meta": {"OBJECT_NAME": "EUTELSAT QUANTUM", "OBJECT_ID": "2021-069B", "EPOCH": "2025-12-27T01:14:43.109376", "MEAN_MOTION": 1.00271592, "ECCENTRICITY": 0.0003652, "INCLINATION": 0.0149, "RA_OF_ASC_NODE": 31.5305, "ARG_OF_PERICENTER": 252.4924, "MEAN_ANOMALY": 238.1442, "EPHEMERIS_TYPE": 0, "CLASSIFICATION_TYPE": "U", "NORAD_CAT_ID": 49056, "ELEMENT_SET_NO": 999, "REV_AT_EPOCH": 1620, "BSTAR": 0, "MEAN_MOTION_DOT": 1.48e-06, "MEAN_MOTION_DDOT": 0}, "tle": {"line1": "1 49056U 21069B   25361.05188784  .00000148  00000+0  00000+0 0  9991", "line2": "2 49056   0.0149  31.5305 0003652 252.4924 238.1442  1.00271592 16201"}}, "geometry": {"type": "Point", "coordinates": [-73.94627046479792, -0.03232485568749991]}}, {"type": "Feature", "properties": {"norad_id": 53765, "name": "EUTELSAT KONNECT VHTS", "group": "eutelsat", "lat": 0.020385049812621913, "lon": -118.95009822711258, "alt_km": 35775.418776327024, "timestamp": "2025-12-27T09:28:56.138746+00:00", "meta": {"OBJECT_NAME": "EUTELSAT KONNECT VHTS", "OBJECT_ID": "2022-110A", "EPOCH": "2025-12-26T23:19:08.450112", "MEAN_MOTION": 1.00268307, "ECCENTRICITY": 0.0002789, "INCLINATION": 0.0593, "RA_OF_ASC_NODE": 98.4997, "ARG_OF_PERICENTER": 152.36, "MEAN_ANOMALY": 197.3421, "EPHEMERIS_TYPE": 0, "CLASSIFICATION_TYPE": "U", "NORAD_CAT_ID": 53765, "ELEMENT_SET_NO": 999, "REV_AT_EPOCH": 510, "BSTAR": 0, "MEAN_MOTION_DOT": 3.9e-07, "MEAN_MOTION_DDOT": 0}, "tle": {"line1": "1 53765U 22110A   25360.97162558  .00000039  00000+0  00000+0 0  9991", "line2": "2 53765   0.0593  98.4997 0002789 152.3600 197.3421  1.00268307  5104"}}, "geometry": {"type": "Point", "coordinates": [-118.95009822711258, 0.020385049812621913]}}, {"type": "Feature", "properties": {"norad_id": 54048, "name": "EUTELSAT HOTBIRD 13F", "group": "eutelsat", "lat": -0.04595084440628473, "lon": -108.69028426423445, "alt_km": 35788.902762966594, "timestamp": "2025-12-27T09:28:56.138757+00:00", "meta": {"OBJECT_NAME": "EUTELSAT HOTBIRD 13F", "OBJECT_ID": "2022-134A", "EPOCH": "2025-12-26T22:46:38.586144", "MEAN_MOTION": 1.00271009, "ECCENTRICITY": 0.0002368, "INCLINATION": 0.0512, "RA_OF_ASC_NODE": 291.2358, "ARG_OF_PERICENTER": 65.5103, "MEAN_ANOMALY": 93.5854, "EPHEMERIS_TYPE": 0, "CLASSIFICATION_TYPE": "U", "NORAD_CAT_ID": 54048, "ELEMENT_SET_NO": 999, "REV_AT_EPOCH": 1165, "BSTAR": 0, "MEAN_MOTION_DOT": 1.09e-06, "MEAN_MOTION_DDOT": 0}, "tle": {"line1": "1 54048U 22134A   25360.94905771  .00000109  00000+0  00000+0 0  9999", "line2": "2 54048   0.0512 291.2358 0002368  65.5103  93.5854  1.00271009 11657"}}, "geometry": {"type": "Point", "coordinates": [-108.69028426423445, -0.04595084440628473]}}, {"type": "Feature", "properties": {"norad_id": 54225, "name": "EUTELSAT HOTBIRD 13G", "group": "eutelsat", "lat": -0.00011295719812984193, "lon": -108.6906607136795, "alt_km": 35782.92081261724, "timestamp": "2025-12-27T09:28:56.138769+00:00", "meta": {"OBJECT_NAME": "EUTELSAT HOTBIRD 13G", "OBJECT_ID": "2022-146A", "EPOCH": "2025-12-26T22:46:38.586144", "MEAN_MOTION": 1.00258057, "ECCENTRICITY": 0.0002214, "INCLINATION": 0.0501, "RA_OF_ASC_NODE": 221.1292, "ARG_OF_PERICENTER": 348.4297, "MEAN_ANOMALY": 240.7501, "EPHEMERIS_TYPE": 0, "CLASSIFICATION_TYPE": "U", "NORAD_CAT_ID": 54225, "ELEMENT_SET_NO": 999, "REV_AT_EPOCH": 573, "BSTAR": 0, "MEAN_MOTION_DOT": 1.07e-06, "MEAN_MOTION_DDOT": 0}, "tle": {"line1": "1 54225U 22146A   25360.94905771  .00000107  00000+0  00000+0 0  9997", "line2": "2 54225   0.0501 221.1292 0002214 348.4297 240.7501  1.00258057  5733"}}, "geometry": {"type": "Point", "coordinates": [-108.6906607136795, -0.00011295719812984193]}}, {"type": "Feature", "properties": {"norad_id": 54259, "name": "EUTELSAT 10B", "group": "eutelsat", "lat": 0.010944692721000484, "lon": -111.6335929320437, "alt_km": 35788.24240026872, "timestamp": "2025-12-27T09:28:56.138780+00:00", "meta": {"OBJECT_NAME": "EUTELSAT 10B", "OBJECT_ID": "2022-157A", "EPOCH": "2025-12-26T23:21:15.745824", "MEAN_MOTION": 1.0026978, "ECCENTRICITY": 3.88e-05, "INCLINATION": 0.0595, "RA_OF_ASC_NODE": 95.7073, "ARG_OF_PERICENTER": 337.8466, "MEAN_ANOMALY": 22.488, "EPHEMERIS_TYPE": 0, "CLASSIFICATION_TYPE": "U", "NORAD_CAT_ID": 54259, "ELEMENT_SET_NO": 999, "REV_AT_EPOCH": 1130, "BSTAR": 0, "MEAN_MOTION_DOT": 9e-07, "MEAN_MOTION_DDOT": 0}, "tle": {"line1": "1 54259U 22157A   25360.97309891  .00000090  00000+0  00000+0 0  9991", "line2": "2 54259   0.0595  95.7073 0000388 337.8466  22.4880  1.00269780 11305"}}, "geometry": {"type": "Point", "coordinates": [-111.6335929320437, 0.010944692721000484]}}, {"type": "Feature", "properties": {"norad_id": 59346, "name": "EUTELSAT 36D", "group": "eutelsat", "lat": -0.036850550188137064, "lon": -85.7587851374814, "alt_km": 35781.029175458854, "timestamp": "2025-12-27T09:28:56.138792+00:00", "meta": {"OBJECT_NAME": "EUTELSAT 36D", "OBJECT_ID": "2024-059A", "EPOCH": "2025-12-27T00:47:38.503392", "MEAN_MOTION": 1.00278293, "ECCENTRICITY": 0.0001038, "INCLINATION": 0.0199, "RA_OF_ASC_NODE": 25.5491, "ARG_OF_PERICENTER": 292.1883, "MEAN_ANOMALY": 185.8304, "EPHEMERIS_TYPE": 0, "CLASSIFICATION_TYPE": "U", "NORAD_CAT_ID": 59346, "ELEMENT_SET_NO": 999, "REV_AT_EPOCH": 642, "BSTAR": 0, "MEAN_MOTION_DOT": 0, "MEAN_MOTION_DDOT": 0}, "tle": {"line1": "1 59346U 24059A   25361.03308453  .00000000  00000+0  00000+0 0  9998", "line2": "2 59346   0.0199  25.5491 0001038 292.1883 185.8304  1.00278293  6422"}}, "geometry": {"type": "Point", "coordinates": [-85.7587851374814, -0.036850550188137064]}}]}